[{"OBJECT_NAME":"YAOGAN-30 09B","OBJECT_ID":"2021-039B","EPOCH":"2026-03-09T22:20:48.922656","MEAN_MOTION":15.02072563,"ECCENTRICITY":0.00040485,"INCLINATION":34.9947,"RA_OF_ASC_NODE":275.8048,"ARG_OF_PERICENTER":16.716,"MEAN_ANOMALY":343.368,"EPHEMERIS_TYPE":0,"CLASSIFICATION_TYPE":"U","NORAD_CAT_ID":48424,"ELEMENT_SET_NO":999,"REV_AT_EPOCH":26460,"BSTAR":0.00030086598,"MEAN_MOTION_DOT":4.004e-5,"MEAN_MOTION_DDOT":0},{"OBJECT_NAME":"STARLINK-34341","OBJECT_ID":"2025-112R","EPOCH":"2026-03-09T17:07:00.120576","MEAN_MOTION":15.05648529,"ECCENTRICITY":8.811e-5,"INCLINATION":97.602,"RA_OF_ASC_NODE":121.5765,"ARG_OF_PERICENTER":174.2519,"MEAN_ANOMALY":185.8719,"EPHEMERIS_TYPE":0,"CLASSIFICATION_TYPE":"U","NORAD_CAT_ID":64161,"ELEMENT_SET_NO":999,"REV_AT_EPOCH":4331,"BSTAR":7.2741545e-5,"MEAN_MOTION_DOT":9.89e-6,"MEAN_MOTION_DDOT":0}]
